NORAD_CAT_ID,OBJECT_NAME,OBJECT_TYPE,EPOCH,MEAN_MOTION,ECCENTRICITY,INCLINATION,RA_OF_ASC_NODE,ARG_OF_PERICENTER,MEAN_ANOMALY,BSTAR,MEAN_MOTION_DOT,MEAN_MOTION_DDOT,TLE_LINE0,TLE_LINE1,TLE_LINE2,SEMIMAJOR_AXIS,PERIOD,APOGEE,PERIGEE,DECAYED
55926.0,STARLINK-5921,PAYLOAD,2023-12-21 14:26:34,14.98329431,0.0002742,69.9988,164.5746,274.344,85.7406,8.8258e-06,1.2e-07,0.0,0 STARLINK-5921,1 55926U 23037N   23355.60178864  .00000012  00000-0  88258-5 0  9999,2 55926  69.9988 164.5746 0002742 274.3440  85.7406 14.98329431 42785,6950.195,96.107,573.965,570.154,0.0
55926.0,STARLINK-5921,PAYLOAD,2023-12-21 16:02:42,14.98330362,0.0002574,69.9992,164.4069,268.5332,91.5533,8.4399e-06,8e-08,0.0,0 STARLINK-5921,1 55926U 23037N   23355.66854784  .00000008  00000-0  84399-5 0  9994,2 55926  69.9992 164.4069 0002574 268.5332  91.5533 14.98330362 43136,6950.192,96.107,573.846,570.268,0.0
55926.0,STARLINK-5921,PAYLOAD,2023-12-21 20:51:06,14.9833164,0.000261,69.9992,163.902,269.706,90.38,3.8064e-05,3.61e-06,0.0,0 STARLINK-5921,1 55926U 23037N   23355.86882603  .00000361  00000-0  38064-4 0  9996,2 55926  69.9992 163.9020 0002610 269.7060  90.3800 14.98331640 42828,6950.188,96.107,573.867,570.239,0.0
55926.0,STARLINK-5921,PAYLOAD,2023-12-22 14:28:35,14.98325,0.0002494,69.9997,162.0513,263.2026,96.8849,-4.6692e-05,-6.5e-06,0.0,0 STARLINK-5921,1 55926U 23037N   23356.60319333 -.00000650  00000-0 -46692-4 0  9993,2 55926  69.9997 162.0513 0002494 263.2026  96.8849 14.98325000 42930,6950.208,96.107,573.807,570.34,0.0
55926.0,STARLINK-5921,PAYLOAD,2023-12-22 19:17:00,14.98324113,0.0002511,69.9997,161.5463,264.4265,95.6608,-5.3896e-05,-7.36e-06,0.0,0 STARLINK-5921,1 55926U 23037N   23356.80347473 -.00000736  00000-0 -53896-4 0  9990,2 55926  69.9997 161.5463 0002511 264.4265  95.6608 14.98324113 43302,6950.211,96.107,573.821,570.331,0.0
55926.0,STARLINK-5921,PAYLOAD,2023-12-22 20:53:08,14.98324165,0.0002518,69.9997,161.3779,265.0813,95.0058,-5.2938e-05,-7.24e-06,0.0,0 STARLINK-5921,1 55926U 23037N   23356.87023489 -.00000724  00000-0 -52938-4 0  9998,2 55926  69.9997 161.3779 0002518 265.0813  95.0058 14.98324165 42975,6950.211,96.107,573.826,570.326,0.0
55926.0,STARLINK-5921,PAYLOAD,2023-12-23 11:18:20,14.98332239,0.0002641,69.9994,159.8623,270.0782,90.0074,3.3227e-07,-8.9e-07,0.0,0 STARLINK-5921,1 55926U 23037N   23357.47106921 -.00000089  00000-0  33227-6 0  9993,2 55926  69.9994 159.8623 0002641 270.0782  90.0074 14.98332239 43403,6950.186,96.107,573.887,570.215,0.0
55926.0,STARLINK-5921,PAYLOAD,2023-12-23 14:30:36,14.98332557,0.0002636,69.9995,159.5257,269.5799,90.5058,5.0181e-06,-3.3e-07,0.0,0 STARLINK-5921,1 55926U 23037N   23357.60458868 -.00000033  00000-0  50181-5 0  9994,2 55926  69.9995 159.5257 0002636 269.5799  90.5058 14.98332557 43083,6950.185,96.107,573.882,570.218,0.0
55926.0,STARLINK-5921,PAYLOAD,2023-12-23 20:55:08,14.98333447,0.0002626,69.9996,158.8526,268.9047,91.1811,1.642e-05,1.03e-06,0.0,0 STARLINK-5921,1 55926U 23037N   23357.87162742  .00000103  00000-0  16420-4 0  9990,2 55926  69.9996 158.8526 0002626 268.9047  91.1811 14.98333447 43121,6950.182,96.107,573.872,570.222,0.0
55926.0,STARLINK-5921,PAYLOAD,2023-12-24 11:20:21,14.98330797,0.0002765,69.9994,157.3378,269.6384,90.4459,7.9309e-05,8.53e-06,0.0,0 STARLINK-5921,1 55926U 23037N   23358.47246640  .00000853  00000-0  79309-4 0  9994,2 55926  69.9994 157.3378 0002765 269.6384  90.4459 14.98330797 43556,6950.19,96.107,573.977,570.134,0.0
55926.0,STARLINK-5921,PAYLOAD,2023-12-24 14:32:37,14.98331009,0.0002767,69.9994,157.0013,267.6503,92.434,7.6618e-05,8.21e-06,0.0,0 STARLINK-5921,1 55926U 23037N   23358.60598603  .00000821  00000-0  76618-4 0  9993,2 55926  69.9994 157.0013 0002767 267.6503  92.4340 14.98331009 43235,6950.19,96.107,573.978,570.132,0.0
55926.0,STARLINK-5921,PAYLOAD,2023-12-24 20:57:09,14.9833422,0.0002718,69.9996,156.3282,268.1353,91.9495,0.00010841,1.201e-05,0.0,0 STARLINK-5921,1 55926U 23037N   23358.87302263  .00001201  00000-0  10841-3 0  9995,2 55926  69.9996 156.3282 0002718 268.1353  91.9495 14.98334220 43279,6950.18,96.107,573.934,570.156,0.0
55926.0,STARLINK-5921,PAYLOAD,2023-12-25 11:22:21,14.98332646,0.0002546,70.0,154.8134,266.2642,93.8225,-6.4914e-06,-1.7e-06,0.0,0 STARLINK-5921,1 55926U 23037N   23359.47386555 -.00000170  00000-0 -64914-5 0  9996,2 55926  70.0000 154.8134 0002546 266.2642  93.8225 14.98332646 43706,6950.185,96.107,573.819,570.28,0.0
55926.0,STARLINK-5921,PAYLOAD,2023-12-25 14:34:38,14.98331741,0.0002575,70.0,154.4768,264.7436,95.343,-1.9198e-05,-3.22e-06,0.0,0 STARLINK-5921,1 55926U 23037N   23359.60738599 -.00000322  00000-0 -19198-4 0  9992,2 55926  70.0000 154.4768 0002575 264.7436  95.3430 14.98331741 43385,6950.188,96.107,573.842,570.263,0.0
55926.0,STARLINK-5921,PAYLOAD,2023-12-25 19:23:02,14.98330309,0.0002621,70.0,153.972,268.0295,92.0564,-3.3924e-05,-4.98e-06,0.0,0 STARLINK-5921,1 55926U 23037N   23359.80766723 -.00000498  00000-0 -33924-4 0  9991,2 55926  70.0000 153.9720 0002621 268.0295  92.0564 14.98330309 43414,6950.192,96.107,573.879,570.235,0.0
55926.0,STARLINK-5921,PAYLOAD,2023-12-26 11:24:22,14.98329757,0.0002612,70.0003,152.2891,264.3781,95.708,-2.4347e-05,-3.83e-06,0.0,0 STARLINK-5921,1 55926U 23037N   23360.47526590 -.00000383  00000-0 -24347-4 0  9994,2 55926  70.0003 152.2891 0002612 264.3781  95.7080 14.98329757 43853,6950.194,96.107,573.874,570.243,0.0
55926.0,STARLINK-5921,PAYLOAD,2023-12-26 14:36:39,14.98329081,0.000265,70.0002,151.9525,264.6707,95.415,-3.497e-05,-5.1e-06,0.0,0 STARLINK-5921,1 55926U 23037N   23360.60878650 -.00000510  00000-0 -34970-4 0  9991,2 55926  70.0002 151.9525 0002650 264.6707  95.4150 14.98329081 43535,6950.196,96.107,573.903,570.219,0.0
55926.0,STARLINK-5921,PAYLOAD,2023-12-26 19:25:03,14.98329779,0.0002743,70.0,151.4475,265.5544,94.5302,-3.0932e-05,-4.62e-06,0.0,0 STARLINK-5921,1 55926U 23037N   23360.80906588 -.00000462  00000-0 -30932-4 0  9995,2 55926  70.0000 151.4475 0002743 265.5544  94.5302 14.98329779 43560,6950.194,96.107,573.965,570.152,0.0
55926.0,STARLINK-5921,PAYLOAD,2023-12-27 11:26:23,14.98328438,0.0002756,70.0001,149.7639,264.1498,95.9347,2.5022e-05,2.06e-06,0.0,0 STARLINK-5921,1 55926U 23037N   23361.47666426  .00000206  00000-0  25022-4 0  9991,2 55926  70.0001 149.7639 0002756 264.1498  95.9347 14.98328438 44005,6950.198,96.107,573.978,570.147,0.0
55926.0,STARLINK-5921,PAYLOAD,2023-12-27 14:38:39,14.98328446,0.0002761,69.9995,149.4267,263.0335,97.051,1.806e-05,1.23e-06,0.0,0 STARLINK-5921,1 55926U 23037N   23361.61018439  .00000123  00000-0  18060-4 0  9994,2 55926  69.9995 149.4267 0002761 263.0335  97.0510 14.98328446 43689,6950.198,96.107,573.982,570.144,0.0
55926.0,STARLINK-5921,PAYLOAD,2023-12-27 19:27:04,14.98329097,0.0002719,70.0001,148.9227,261.2321,98.853,3.37e-05,3.09e-06,0.0,0 STARLINK-5921,1 55926U 23037N   23361.81046364  .00000309  00000-0  33700-4 0  9998,2 55926  70.0001 148.9227 0002719 261.2321  98.8530 14.98329097 43716,6950.196,96.107,573.95,570.171,0.0
55926.0,STARLINK-5921,PAYLOAD,2023-12-28 11:28:24,14.98329055,0.0002636,70.0003,147.2393,258.4589,101.6275,2.4679e-05,2.02e-06,0.0,0 STARLINK-5921,1 55926U 23037N   23362.47806370  .00000202  00000-0  24679-4 0  9999,2 55926  70.0003 147.2393 0002636 258.4589 101.6275 14.98329055 44158,6950.196,96.107,573.893,570.229,0.0
55926.0,STARLINK-5921,PAYLOAD,2023-12-28 14:40:40,14.98338556,0.0002792,70.0002,146.9029,262.8444,97.2397,-0.00015911,-1.991e-05,0.0,0 STARLINK-5921,1 55926U 23037N   23362.61158305 -.00001991  00000-0 -15911-3 0  9999,2 55926  70.0002 146.9029 0002792 262.8444  97.2397 14.98338556 43836,6950.166,96.106,573.972,570.091,0.0
55926.0,STARLINK-5921,PAYLOAD,2023-12-28 19:29:04,14.98331458,0.0002889,70.0,146.3977,273.3294,86.7535,4.7411e-05,4.73e-06,0.0,0 STARLINK-5921,1 55926U 23037N   23362.81186257  .00000473  00000-0  47411-4 0  9991,2 55926  70.0000 146.3977 0002889 273.3294  86.7535 14.98331458 43861,6950.188,96.107,574.061,570.045,0.0
55926.0,STARLINK-5921,PAYLOAD,2023-12-29 11:30:25,14.98327669,0.0002914,69.9998,144.7146,266.999,93.0836,-1.1097e-05,-2.25e-06,0.0,0 STARLINK-5921,1 55926U 23037N   23363.47946573 -.00000225  00000-0 -11097-4 0  9997,2 55926  69.9998 144.7146 0002914 266.9990  93.0836 14.98327669 44308,6950.2,96.107,574.09,570.04,0.0
55926.0,STARLINK-5921,PAYLOAD,2023-12-29 14:42:41,14.9832839,0.0002911,69.9998,144.3778,266.5215,93.5611,-1.6193e-05,-2.86e-06,0.0,0 STARLINK-5921,1 55926U 23037N   23363.61298549 -.00000286  00000-0 -16193-4 0  9995,2 55926  69.9998 144.3778 0002911 266.5215  93.5611 14.98328390 43989,6950.198,96.107,574.086,570.04,0.0
55926.0,STARLINK-5921,PAYLOAD,2023-12-29 19:31:06,14.98329569,0.0002913,69.9999,143.8732,266.5955,93.487,-1.7969e-06,-1.14e-06,0.0,0 STARLINK-5921,1 55926U 23037N   23363.81326450 -.00000114  00000-0 -17969-5 0  9993,2 55926  69.9999 143.8732 0002913 266.5955  93.4870 14.98329569 44017,6950.194,96.107,574.084,570.035,0.0
55926.0,STARLINK-5921,PAYLOAD,2023-12-30 11:32:27,14.98319121,0.0002655,70.0006,142.1882,259.7984,100.2875,-6.9605e-05,-9.23e-06,0.0,0 STARLINK-5921,1 55926U 23037N   23364.48087429 -.00000923  00000-0 -69605-4 0  9998,2 55926  70.0006 142.1882 0002655 259.7984 100.2875 14.98319121 44459,6950.227,96.108,573.937,570.246,0.0
55926.0,STARLINK-5921,PAYLOAD,2023-12-30 14:44:43,14.98318013,0.0003326,69.9989,141.8503,275.503,84.575,-9.7104e-05,-1.251e-05,0.0,0 STARLINK-5921,1 55926U 23037N   23364.61439743 -.00001251  00000-0 -97104-4 0  9993,2 55926  69.9989 141.8503 0003326 275.5030  84.5750 14.98318013 44136,6950.23,96.108,574.407,569.783,0.0
55926.0,STARLINK-5921,PAYLOAD,2023-12-30 19:33:08,14.98318145,0.0003428,69.999,141.3463,274.5202,85.5565,-9.8747e-05,-1.271e-05,0.0,0 STARLINK-5921,1 55926U 23037N   23364.81467894 -.00001271  00000-0 -98747-4 0  9999,2 55926  69.9990 141.3463 0003428 274.5202  85.5565 14.98318145 44165,6950.23,96.108,574.477,569.712,0.0
